{
    "links": {
        "self": "http://www.neowsapp.com/rest/v1/neo/3620862?api_key=iIulBulltgU6a56xZRHN4H3l9WmuAYTsLGpBGhQ2"
    },
    "id": "3620862",
    "neo_reference_id": "3620862",
    "name": "(2012 XZ132)",
    "designation": "2012 XZ132",
    "nasa_jpl_url": "http://ssd.jpl.nasa.gov/sbdb.cgi?sstr=3620862",
    "absolute_magnitude_h": 24.7,
    "estimated_diameter": {
        "kilometers": {
            "estimated_diameter_min": 0.0305179233,
            "estimated_diameter_max": 0.0682401509
        },
        "meters": {
            "estimated_diameter_min": 30.5179232594,
            "estimated_diameter_max": 68.2401509401
        },
        "miles": {
            "estimated_diameter_min": 0.0189629525,
            "estimated_diameter_max": 0.0424024508
        },
        "feet": {
            "estimated_diameter_min": 100.1244233463,
            "estimated_diameter_max": 223.8850168104
        }
    },
    "is_potentially_hazardous_asteroid": false,
    "close_approach_data": [
        {
            "close_approach_date": "2003-12-05",
            "close_approach_date_full": "2003-Dec-05 17:30",
            "epoch_date_close_approach": 1070645400000,
            "relative_velocity": {
                "kilometers_per_second": "10.9634810913",
                "kilometers_per_hour": "39468.5319286678",
                "miles_per_hour": "24524.2108531214"
            },
            "miss_distance": {
                "astronomical": "0.0460191808",
                "lunar": "17.9014613312",
                "kilometers": "6884371.426824896",
                "miles": "4277750.0427237248"
            },
            "orbiting_body": "Mars"
        },
        {
            "close_approach_date": "2013-01-07",
            "close_approach_date_full": "2013-Jan-07 10:08",
            "epoch_date_close_approach": 1357553280000,
            "relative_velocity": {
                "kilometers_per_second": "7.5345830019",
                "kilometers_per_hour": "27124.4988068855",
                "miles_per_hour": "16854.1087169784"
            },
            "miss_distance": {
                "astronomical": "0.0518330028",
                "lunar": "20.1630380892",
                "kilometers": "7754106.814584036",
                "miles": "4818178.5526742568"
            },
            "orbiting_body": "Earth"
        },
        {
            "close_approach_date": "2013-06-26",
            "close_approach_date_full": "2013-Jun-26 03:25",
            "epoch_date_close_approach": 1372217100000,
            "relative_velocity": {
                "kilometers_per_second": "6.5209853284",
                "kilometers_per_hour": "23475.547182201",
                "miles_per_hour": "14586.7920810737"
            },
            "miss_distance": {
                "astronomical": "0.4374952838",
                "lunar": "170.1856653982",
                "kilometers": "65448362.591525506",
                "miles": "40667726.7268277428"
            },
            "orbiting_body": "Earth"
        },
        {
            "close_approach_date": "2015-12-16",
            "close_approach_date_full": "2015-Dec-16 11:24",
            "epoch_date_close_approach": 1450265040000,
            "relative_velocity": {
                "kilometers_per_second": "16.9318172596",
                "kilometers_per_hour": "60954.5421346752",
                "miles_per_hour": "37874.7820280708"
            },
            "miss_distance": {
                "astronomical": "0.2795987258",
                "lunar": "108.7639043362",
                "kilometers": "41827373.834394046",
                "miles": "25990324.9133119948"
            },
            "orbiting_body": "Earth"
        }
    ],
    "orbital_data": {
        "orbit_id": "9",
        "orbit_determination_date": "2017-04-06 08:47:38",
        "first_observation_date": "2012-12-09",
        "last_observation_date": "2012-12-22",
        "data_arc_in_days": 13,
        "observations_used": 25,
        "orbit_uncertainty": "8",
        "minimum_orbit_intersection": ".0148817",
        "jupiter_tisserand_invariant": "4.954",
        "epoch_osculation": "2456273.5",
        "eccentricity": ".3395567212828251",
        "semi_major_axis": "1.295614975666822",
        "inclination": "2.384657501070583",
        "ascending_node_longitude": "209.437974563954",
        "orbital_period": "538.6570716438968",
        "perihelion_distance": ".8556802024844684",
        "perihelion_argument": "314.0156246729205",
        "aphelion_distance": "1.735549748849175",
        "perihelion_time": "2456344.075567196102",
        "mean_anomaly": "312.8323203609712",
        "mean_motion": ".6683287363170347",
        "equinox": "J2000",
        "orbit_class": {
            "orbit_class_type": "APO",
            "orbit_class_description": "Near-Earth asteroid orbits which cross the Earth’s orbit similar to that of 1862 Apollo",
            "orbit_class_range": "a (semi-major axis) > 1.0 AU; q (perihelion) < 1.017 AU"
        }
    },
    "is_sentry_object": false
}